BEIJING-3B              
1 53587U 22103A   22259.17758183  .00001279  00000+0  14771-3 0  9997
2 53587  97.9400 327.8026 0014186 182.6964 177.4170 14.87317396  3439
STARLINK-4691           
1 53588U 22104A   22259.00001157 -.01157225  00000+0 -11525-1 0  9991
2 53588  53.2171 194.6689 0001091 104.6734 335.8410 15.67580201  3001
STARLINK-4673           
1 53589U 22104B   22259.00001157 -.01185826  00000+0 -11783-1 0  9996
2 53589  53.2171 194.6605 0001056  98.2390 346.0649 15.67698617  3006
STARLINK-4689           
1 53590U 22104C   22259.00001157 -.01157736  00000+0 -11521-1 0  9997
2 53590  53.2170 194.6672 0001169 112.6352 328.6404 15.67599864  3004
STARLINK-4674           
1 53591U 22104D   22259.00001157 -.01148123  00000+0 -11410-1 0  9995
2 53591  53.2170 194.6651 0001060 104.7443 337.2950 15.67612423  3004
STARLINK-4672           
1 53592U 22104E   22259.00001157 -.01149192  00000+0 -11412-1 0  9995
2 53592  53.2171 194.6645 0001119 105.9741 336.8247 15.67632668  3005
STARLINK-4671           
1 53593U 22104F   22259.00001157 -.01137315  00000+0 -11277-1 0  9999
2 53593  53.2170 194.6620 0001140 102.2512 341.3115 15.67643313  3002
STARLINK-4681           
1 53594U 22104G   22259.00001157 -.01151782  00000+0 -11403-1 0  9995
2 53594  53.2170 194.6585 0001085  92.1694 353.6625 15.67712572  3005
STARLINK-4684           
1 53595U 22104H   22259.00001157 -.01155170  00000+0 -11448-1 0  9990
2 53595  53.2170 194.6591 0001097 109.1067 335.9665 15.67695545  3411
STARLINK-4668           
1 53596U 22104J   22259.00001157 -.01155999  00000+0 -11437-1 0  9998
2 53596  53.2169 194.6539 0001160 111.6842 336.1157 15.67737640  3009
STARLINK-4682           
1 53597U 22104K   22259.00001157 -.01151123  00000+0 -11387-1 0  9998
2 53597  53.2170 194.6560 0001079 108.4909 338.0987 15.67731413  3007
STARLINK-4676           
1 53598U 22104L   22259.00001157 -.01188117  00000+0 -11759-1 0  9995
2 53598  53.2171 194.6517 0001069  84.4317   4.8693 15.67800005  3002
STARLINK-4665           
1 53599U 22104M   22259.00001157  .00085310  00000+0  38643-3 0  9997
2 53599  53.2158 193.6828 0001679  48.9775 154.2142 15.83245950  3012
STARLINK-4677           
1 53600U 22104N   22259.00001157 -.01137826  00000+0 -11209-1 0  9990
2 53600  53.2170 194.6479 0001168 102.7779 348.0508 15.67802219  3410
STARLINK-4675           
1 53601U 22104P   22259.00001157 -.01149719  00000+0 -11362-1 0  9995
2 53601  53.2170 194.6522 0001099 110.8746 337.6847 15.67751959  3006
STARLINK-4648           
1 53602U 22104Q   22259.25001157  .00116712  00000+0  82755-3 0  9993
2 53602  53.2149 193.3653 0000795  85.5905   5.2704 15.73113343  3041
STARLINK-4692           
1 53603U 22104R   22259.00001157 -.00088590  00000+0 -63223-3 0  9990
2 53603  53.2148 194.6019 0001251  88.1386  25.5542 15.73245135  3007
STARLINK-4690           
1 53604U 22104S   22259.00001157  .00030268  00000+0  21966-3 0  9996
2 53604  53.2158 194.6036 0001359 107.6925   7.4199 15.73161365  3002
STARLINK-4693           
1 53605U 22104T   22259.00001157 -.01137168  00000+0 -11211-1 0  9997
2 53605  53.2169 194.6492 0001170 106.6809 343.3932 15.67782356  3001
STARLINK-4590           
1 53606U 22104U   22259.00001157 -.00110025  00000+0 -78810-3 0  9990
2 53606  53.2147 194.5946 0001077  89.8110  29.2122 15.73250764  3005
STARLINK-4591           
1 53607U 22104V   22259.00001157 -.00076042  00000+0 -54108-3 0  9995
2 53607  53.2148 194.6013 0001051  87.0088  27.7550 15.73252612  3001
STARLINK-4647           
1 53608U 22104W   22259.00001157 -.00121180  00000+0 -86888-3 0  9990
2 53608  53.2146 194.5948 0001319  99.3626  17.8391 15.73269345  3001
STARLINK-4660           
1 53609U 22104X   22259.00001157  .00027953  00000+0  20274-3 0  9999
2 53609  53.2148 194.5980 0001136 112.4179   3.3151 15.73221137  3008
STARLINK-4610           
1 53610U 22104Y   22259.00001157 -.00108242  00000+0 -77471-3 0  9995
2 53610  53.2148 194.5930 0000983 101.8632  16.5612 15.73262514  3002
STARLINK-4650           
1 53611U 22104Z   22259.00001157 -.00055792  00000+0 -39556-3 0  9999
2 53611  53.2145 194.5951 0001230  97.0471  19.5175 15.73210750  3008
STARLINK-4658           
1 53612U 22104AA  22259.00001157  .00028538  00000+0  20739-3 0  9999
2 53612  53.2148 194.5894 0001302 127.6881 352.5473 15.73162450  3007
STARLINK-4655           
1 53613U 22104AB  22259.00001157 -.00021968  00000+0 -15240-3 0  9993
2 53613  53.2146 194.5936 0001039  93.0264  24.7307 15.73217925  3003
STARLINK-4605           
1 53616U 22104AE  22259.00001157 -.00094399  00000+0 -67411-3 0  9991
2 53616  53.2156 193.8812 0001262  72.2341  31.7687 15.73256500  3017
STARLINK-4601           
1 53617U 22104AF  22259.00001157 -.00075185  00000+0 -53473-3 0  9997
2 53617  53.2151 194.5897 0001102  99.9086  20.9009 15.73258976  3005
STARLINK-4604           
1 53618U 22104AG  22259.00001157 -.00001653  00000+0 -73683-5 0  9994
2 53618  53.2153 194.5859 0001123  90.9424  32.1819 15.73194683  2991
STARLINK-4609           
1 53619U 22104AH  22259.00001157 -.00057830  00000+0 -40946-3 0  9997
2 53619  53.2147 194.5866 0001205  92.0787  29.2095 15.73256753  3002
STARLINK-4615           
1 53620U 22104AJ  22259.00001157 -.00099513  00000+0 -71184-3 0  9991
2 53620  53.2148 194.5812 0001009  97.7822  26.4527 15.73239692  3002
STARLINK-4608           
1 53621U 22104AK  22259.00001157 -.00110272  00000+0 -78918-3 0  9990
2 53621  53.2150 194.5856 0001256 112.1729  10.4105 15.73271662  3004
STARLINK-4568           
1 53622U 22104AL  22259.00001157 -.00063785  00000+0 -45331-3 0  9990
2 53622  53.2144 194.5773 0001136  90.9481  34.5628 15.73210274  3000
STARLINK-4573           
1 53623U 22104AM  22259.00001157 -.00112298  00000+0 -80382-3 0  9990
2 53623  53.2148 194.5823 0001230 110.4278  13.3657 15.73275484  3009
STARLINK-4596           
1 53624U 22104AN  22259.00001157 -.00104962  00000+0 -74986-3 0  9993
2 53624  53.2152 194.5792 0001182  99.2745  26.7821 15.73291305  3000
STARLINK-4603           
1 53625U 22104AP  22259.00001157 -.00032890  00000+0 -23049-3 0  9998
2 53625  53.2149 194.5808 0001210  95.3298  29.5534 15.73235573  3004
STARLINK-4554           
1 53626U 22104AQ  22259.00001157 -.00030169  00000+0 -21103-3 0  9995
2 53626  53.2152 194.5762 0001028  97.5362  30.3041 15.73231494  3002
STARLINK-4595           
1 53627U 22104AR  22259.25001157  .00068226  00000+0  48755-3 0  9998
2 53627  53.2151 193.3415 0001113  90.8729  12.4765 15.73153861  3041
STARLINK-4600           
1 53628U 22104AS  22259.00001157 -.00075175  00000+0 -53576-3 0  9992
2 53628  53.2152 194.5738 0001040  99.1698  29.8915 15.73211349  3001
STARLINK-4602           
1 53629U 22104AT  22259.00001157 -.00103158  00000+0 -73878-3 0  9993
2 53629  53.2151 194.5763 0001228  92.5757  34.7282 15.73226750  3004
STARLINK-4598           
1 53630U 22104AU  22259.00001157 -.00055493  00000+0 -39347-3 0  9996
2 53630  53.2151 194.5718 0001025 106.3944  23.2605 15.73207398  3002
STARLINK-4599           
1 53631U 22104AV  22259.00001157 -.00039857  00000+0 -28077-3 0  9991
2 53631  53.2149 194.5734 0001371 100.9525  27.5156 15.73211361  3000
STARLINK-4606           
1 53632U 22104AW  22259.00001157 -.00065087  00000+0 -46244-3 0  9992
2 53632  53.2151 194.5698 0001154  95.6693  35.1910 15.73224630  3004
STARLINK-4593           
1 53633U 22104AX  22259.00001157 -.00116425  00000+0 -83469-3 0  9996
2 53633  53.2151 194.5702 0001159 107.9528  22.2752 15.73254645  3000
STARLINK-4592           
1 53634U 22104AY  22259.00001157 -.00035578  00000+0 -25010-3 0  9994
2 53634  53.2149 194.5659 0001292  92.3842  39.6773 15.73204594  3006
STARLINK-4587           
1 53635U 22104AZ  22259.25001157  .00075944  00000+0  54231-3 0  9998
2 53635  53.2145 193.3294 0000974  92.8672  15.2874 15.73127928  3048
STARLINK-4586           
1 53636U 22104BA  22259.25001157 -.00002389  00000+0 -12620-4 0  9991
2 53636  53.2152 193.3285 0000882  80.0872  29.9419 15.73192778  3048
STARLINK-4396           
1 53637U 22104BB  22259.00001157 -.00081077  00000+0 -57853-3 0  9992
2 53637  53.2153 194.5665 0001086  98.6826  33.9642 15.73212879  3000
STARLINK-4594           
1 53638U 22104BC  22259.00001157 -.00067941  00000+0 -48268-3 0  9997
2 53638  53.2150 194.5618 0000993 109.0587  25.4486 15.73243960  3000
STARLINK-4422           
1 53639U 22104BD  22259.00001157 -.00073405  00000+0 -52134-3 0  9997
2 53639  53.2153 194.5639 0000956 105.9634  27.8301 15.73282342  3003
STARLINK-4597           
1 53640U 22104BE  22259.00001157 -.00114279  00000+0 -81815-3 0  9992
2 53640  53.2149 194.5597 0001328 112.8285  22.2343 15.73278695  3007
STARLINK-4588           
1 53641U 22104BF  22259.25001157 -.00060834  00000+0 -43203-3 0  9996
2 53641  53.2153 193.3243 0000974  97.4363  14.9324 15.73208168  3048
FALCON 9 DEB            
1 53642U 22104BG  22258.36482582  .07113892  12188-4  56923-3 0  9999
2 53642  53.2116 194.2584 0015379 126.6397 233.6067 16.38746526  2942
FALCON 9 DEB            
1 53643U 22104BH  22258.91054404  .14520213  12578-4  14853-3 0  9995
2 53643  53.1974 191.2397 0007827 115.8535 244.3326 16.50327011  3032
FALCON 9 DEB            
1 53644U 22104BJ  22258.22609862  .05963189  12195-4  55619-3 0  9997
2 53644  53.2112 194.7971 0014968 118.5989 241.6567 16.37487189  2923
FALCON 9 DEB            
1 53645U 22104BK  22258.21937575  .06172303  12269-4  45038-3 0  9999
2 53645  53.2111 194.7370 0012419 116.4635 243.7689 16.39681025  2925
STARLINK-4622           
1 53648U 22105A   22259.00001157 -.00778475  00000+0 -69844-2 0  9992
2 53648  97.6554 137.4002 0001654 126.3393  51.2232 15.70470503  2777
STARLINK-4386           
1 53649U 22105B   22259.00001157 -.01214890  00000+0 -12588-1 0  9992
2 53649  97.6555 137.3960 0002009 123.5807  48.1097 15.67267705  2762
